[{"OBJECT_NAME":"ORBCOMM FM19","OBJECT_ID":"1998-046C","EPOCH":"2026-03-09T00:07:17.563296","MEAN_MOTION":14.39270127,"ECCENTRICITY":0.00018158,"INCLINATION":44.9959,"RA_OF_ASC_NODE":359.683,"ARG_OF_PERICENTER":187.4459,"MEAN_ANOMALY":272.3467,"EPHEMERIS_TYPE":0,"CLASSIFICATION_TYPE":"U","NORAD_CAT_ID":25415,"ELEMENT_SET_NO":999,"REV_AT_EPOCH":44234,"BSTAR":0.00058926699,"MEAN_MOTION_DOT":1.703e-5,"MEAN_MOTION_DDOT":0},{"OBJECT_NAME":"METEOR 2-6 DEB","OBJECT_ID":"1980-073H","EPOCH":"2026-03-09T07:21:27.021600","MEAN_MOTION":14.4758969,"ECCENTRICITY":0.00408703,"INCLINATION":81.2172,"RA_OF_ASC_NODE":63.1519,"ARG_OF_PERICENTER":89.7065,"MEAN_ANOMALY":270.881,"EPHEMERIS_TYPE":0,"CLASSIFICATION_TYPE":"U","NORAD_CAT_ID":31406,"ELEMENT_SET_NO":999,"REV_AT_EPOCH":9327,"BSTAR":0.0026246379,"MEAN_MOTION_DOT":9.784e-5,"MEAN_MOTION_DDOT":0}]
